#aV2022  4 30  0  0  0.00000000     288 DD+AD WGS84 FIT  NGA
## 2207 518400.00000000   300.00000000 59699 0.0000000000000
+   32     1  2  3  4  5  6  7  8  9 10 11 12 13 14 15 16 17
+         18 19 20 21 22 23 24 25 26 27 28 29 30 31 32  0  0
+          0  0  0  0  0  0  0  0  0  0  0  0  0  0  0  0  0
+          0  0  0  0  0  0  0  0  0  0  0  0  0  0  0  0  0
+          0  0  0  0  0  0  0  0  0  0  0  0  0  0  0  0  0
++         2  2  2  2  2  2  2  2  2  2  2  2  2  2  2  2  2
++         2  2  2  2  2  2  2  2  2  2  2  2  2  2  2  0  0
++         0  0  0  0  0  0  0  0  0  0  0  0  0  0  0  0  0
++         0  0  0  0  0  0  0  0  0  0  0  0  0  0  0  0  0
++         0  0  0  0  0  0  0  0  0  0  0  0  0  0  0  0  0
%c cc cc ccc ccc cccc cccc cccc cccc ccccc ccccc ccccc ccccc
%c cc cc ccc ccc cccc cccc cccc cccc ccccc ccccc ccccc ccccc
%f  0.0000000  0.000000000  0.00000000000  0.000000000000000
%f  0.0000000  0.000000000  0.00000000000  0.000000000000000
%i    0    0    0    0      0      0      0      0         0
%i    0    0    0    0      0      0      0      0         0
/*      NGA, ST. LOUIS,MO.                                  
/*   EPHEMERIS COMPUTED FROM 2 DAYS OF DATA                 
/*   EPOCHA v7 SMOOTHER                                     
/*   G2139 IERS2010 SATIGS SATAPC                           
*  2022  4 30  3 35  0.00000000
P  1 -13892.601421  22273.614584   2159.644385    373.653251                    
V  1   -475.076689  -3829.110223  32428.865362     -0.084967                    
P  2  16989.144624  -6472.276853 -18763.377681   -653.264048                    
V  2  -8819.939420  23597.531055 -15450.208817     -0.000496                    
P  3 -14852.142174  12754.793861 -18000.621956   -226.344706                    
V  3 -22690.689656   -667.816592  18468.905407     -0.145725                    
P  4  -6066.908495  16858.530170 -19568.050726   -171.626305                    
V  4 -13533.212863 -20936.832048 -13918.064357      0.033524                    
P  5  25516.315435  -5525.251875   5143.171418    -80.110628                    
V  5   6890.324835   2143.206490 -30749.210272     -0.013613                    
P  6  10697.352061  10534.506577 -21838.428680    285.186144                    
V  6 -13528.218643  24305.643332   5161.100216      0.141496                    
P  7  -2430.764864  23254.936382  12508.867294    321.402998                    
V  7  -9824.952443  12276.000174 -26038.330809      0.006897                    
P  8 -12850.120916   8004.688305  21786.529878    -66.011535                    
V  8 -15264.020990 -23168.967073   -142.846085     -0.015965                    
P  9   3954.574194  22891.875497 -12909.795354   -340.283955                    
V  9 -10940.613037 -12351.022939 -25408.228087      0.027116                    
P 10 -15690.722719 -11805.035815  18168.073570   -396.771405                    
V 10  22574.536308  -1996.123550  18064.152037     -0.135772                    
P 11  18117.572860  -4547.151722 -18877.505058    -31.700524                    
V 11 -11249.471636  21205.817137 -15921.243622      0.058442                    
P 12  18917.151936 -10153.495857 -15823.623546   -208.060774                    
V 12  19555.808041   2503.384096  22265.766132     -0.058202                    
P 13  16431.683855   1903.774325  20666.692775    303.019847                    
V 13  10164.013800  24511.016193 -10098.057412      0.067007                    
P 14  14108.833353  13099.182753  18329.828373   -105.758729                    
V 14 -23284.900407   1471.384475  16781.363796     -0.022306                    
P 15  11821.781224 -10313.971707  21017.311170    -65.022233                    
V 15  17736.734645  21383.159471    818.847189      0.029646                    
P 16 -26769.856420   -827.143203    984.416203   -496.517048                    
V 16  -1438.480702  -2250.299878 -31610.125530     -0.035457                    
P 17  13911.042399  22416.574225  -2376.505726    606.658173                    
V 17   -348.843866   4217.200400  31997.596863      0.048244                    
P 18   3844.303708 -23408.131597  11826.822937    182.752909                    
V 18   9238.159950 -12077.212346 -26995.113805     -0.097946                    
P 19  16535.774160  18385.898141 -10226.027662    150.993688                    
V 19   3814.508217  12053.127175  28374.886041      0.049969                    
P 20  25845.450692   -934.132266  -5471.461250    515.592027                    
V 20  -6230.987227   4744.479562 -30457.677417     -0.001764                    
P 21 -16949.912587  15497.554001  13373.397430    160.818296                    
V 21   4133.517639 -15873.515918  25504.138121      0.002478                    
P 22 -17398.741950 -16262.095577 -11531.478025    251.370850                    
V 22  -4846.493570 -14616.796071  26785.193650      0.060809                    
P 23  -3749.811220 -14763.959757  21755.961859    -18.593517                    
V 23  27547.832393  -1929.727827   3339.404713     -0.026702                    
P 24  14483.672625 -20877.276150   6664.543628    249.164601                    
V 24    -59.564097   9773.098221  29844.191814     -0.059842                    
P 25   4378.502609 -15331.830149 -21493.941636    318.525825                    
V 25  26678.799833   -422.217433   6084.289451      0.049090                    
P 26 -24090.044897  -5425.857552 -10269.996826    202.257951                    
V 26  12552.244921  -3977.406060 -27267.365147      0.027032                    
P 27 -18166.297899  -5107.049989  18638.813228    194.088723                    
V 27 -11716.522055 -20905.397858 -16569.778985      0.075949                    
P 28  20970.162056  10206.034831  13003.602380    365.482202                    
V 28 -15858.944209   1159.720039  25907.876571     -0.052299                    
P 29  -1620.091499 -22755.314306 -13601.607512   -508.541124                    
V 29   9500.621778  14409.844353 -25395.497377     -0.040728                    
P 30   4991.443702  18629.175990  18236.425561   -525.954236                    
V 30 -13007.041986  19272.938585 -16450.274589     -0.015927                    
P 31 -13099.144878  -8085.306580 -21763.646032   -175.588501                    
V 31  13695.737593 -23687.478947   1018.948324     -0.016146                    
P 32 -16584.972039 -20368.860186  -4424.921046   -116.308475                    
V 32   -793.693849  -6328.918376  30904.076975     -0.083644                    
EOF
